{
  "type": "FeatureCollection",
  "features": [
    {
      "type": "Feature",
      "properties": {
        "norad_id": 19071,
        "name": "OSCAR 32",
        "group": "nnss",
        "lat": 6.46670723884664,
        "lon": -163.04382691108776,
        "alt_km": 1049.2564975638543,
        "timestamp": "2025-12-25T11:37:44.703992+00:00",
        "meta_object_name": "OSCAR 32",
        "meta_object_id": "1988-033B",
        "meta_epoch": "2025-12-25T01:46:19.026048",
        "meta_mean_motion": 13.27955759,
        "meta_eccentricity": 0.0189236,
        "meta_inclination": 90.3208,
        "meta_ra_of_asc_node": 16.907,
        "meta_arg_of_pericenter": 132.6407,
        "meta_mean_anomaly": 237.0138,
        "meta_ephemeris_type": 0,
        "meta_classification_type": "U",
        "meta_norad_cat_id": 19071,
        "meta_element_set_no": 999,
        "meta_rev_at_epoch": 82429,
        "meta_bstar": 9.9554e-05,
        "meta_mean_motion_dot": 5.9e-07,
        "meta_mean_motion_ddot": 0,
        "tle_line1": "1 19071U 88033B   25359.07383132  .00000059  00000+0  99554-4 0  9990",
        "tle_line2": "2 19071  90.3208  16.9070 0189236 132.6407 237.0138 13.27955759824299"
      },
      "geometry": {
        "type": "Point",
        "coordinates": [
          -163.04382691108776,
          6.46670723884664
        ]
      }
    },
    {
      "type": "Feature",
      "properties": {
        "norad_id": 19223,
        "name": "NOVA 2",
        "group": "nnss",
        "lat": 40.49665358323728,
        "lon": -101.75532679668538,
        "alt_km": 1190.98796129915,
        "timestamp": "2025-12-25T11:37:44.704002+00:00",
        "meta_object_name": "NOVA 2",
        "meta_object_id": "1988-052A",
        "meta_epoch": "2025-12-25T03:58:04.448064",
        "meta_mean_motion": 13.22937229,
        "meta_eccentricity": 0.0029518,
        "meta_inclination": 89.9863,
        "meta_ra_of_asc_node": 78.2568,
        "meta_arg_of_pericenter": 342.4679,
        "meta_mean_anomaly": 77.4175,
        "meta_ephemeris_type": 0,
        "meta_classification_type": "U",
        "meta_norad_cat_id": 19223,
        "meta_element_set_no": 999,
        "meta_rev_at_epoch": 81112,
        "meta_bstar": 0.00013323,
        "meta_mean_motion_dot": 6.5e-07,
        "meta_mean_motion_ddot": 0,
        "tle_line1": "1 19223U 88052A   25359.16532926  .00000065  00000+0  13323-3 0  9993",
        "tle_line2": "2 19223  89.9863  78.2568 0029518 342.4679  77.4175 13.22937229811122"
      },
      "geometry": {
        "type": "Point",
        "coordinates": [
          -101.75532679668538,
          40.49665358323728
        ]
      }
    },
    {
      "type": "Feature",
      "properties": {
        "norad_id": 19419,
        "name": "OSCAR 25",
        "group": "nnss",
        "lat": 37.31455843874217,
        "lon": 20.2597533961338,
        "alt_km": 1167.2671736554194,
        "timestamp": "2025-12-25T11:37:44.704012+00:00",
        "meta_object_name": "OSCAR 25",
        "meta_object_id": "1988-074A",
        "meta_epoch": "2025-12-25T01:01:12.412128",
        "meta_mean_motion": 13.42625537,
        "meta_eccentricity": 0.00952,
        "meta_inclination": 90.0336,
        "meta_ra_of_asc_node": 20.2839,
        "meta_arg_of_pericenter": 210.2725,
        "meta_mean_anomaly": 211.9682,
        "meta_ephemeris_type": 0,
        "meta_classification_type": "U",
        "meta_norad_cat_id": 19419,
        "meta_element_set_no": 999,
        "meta_rev_at_epoch": 82805,
        "meta_bstar": 0.00012533,
        "meta_mean_motion_dot": 8.2e-07,
        "meta_mean_motion_ddot": 0,
        "tle_line1": "1 19419U 88074A   25359.04250477  .00000082  00000+0  12533-3 0  9990",
        "tle_line2": "2 19419  90.0336  20.2839 0095200 210.2725 211.9682 13.42625537828056"
      },
      "geometry": {
        "type": "Point",
        "coordinates": [
          20.2597533961338,
          37.31455843874217
        ]
      }
    },
    {
      "type": "Feature",
      "properties": {
        "norad_id": 19420,
        "name": "OSCAR 31",
        "group": "nnss",
        "lat": -79.42620838897072,
        "lon": 20.827247557520863,
        "alt_km": 1091.2705906080791,
        "timestamp": "2025-12-25T11:37:44.704022+00:00",
        "meta_object_name": "OSCAR 31",
        "meta_object_id": "1988-074B",
        "meta_epoch": "2025-12-25T01:25:51.942144",
        "meta_mean_motion": 13.42586559,
        "meta_eccentricity": 0.0093596,
        "meta_inclination": 90.0354,
        "meta_ra_of_asc_node": 20.636,
        "meta_arg_of_pericenter": 204.3707,
        "meta_mean_anomaly": 182.6411,
        "meta_ephemeris_type": 0,
        "meta_classification_type": "U",
        "meta_norad_cat_id": 19420,
        "meta_element_set_no": 999,
        "meta_rev_at_epoch": 82816,
        "meta_bstar": 0.00010569,
        "meta_mean_motion_dot": 7e-07,
        "meta_mean_motion_ddot": 0,
        "tle_line1": "1 19420U 88074B   25359.05962896  .00000070  00000+0  10569-3 0  9992",
        "tle_line2": "2 19420  90.0354  20.6360 0093596 204.3707 182.6411 13.42586559828167"
      },
      "geometry": {
        "type": "Point",
        "coordinates": [
          20.827247557520863,
          -79.42620838897072
        ]
      }
    }
  ]
}